{"type": "FeatureCollection", "features": [ {"type": "Feature", "properties": {"norad_id": 42741, "name": "EUTELSAT 172B", "group": "eutelsat", "lat": -0.005949300660297065, "lon": -136.306917086798, "alt_km": 35786.55444058943, "timestamp": "2025-12-17T21:39:45.379956+00:00", "meta": {"OBJECT_NAME": "EUTELSAT 172B", "OBJECT_ID": "2017-029B", "EPOCH": "2025-12-17T12:34:37.355808", "MEAN_MOTION": 1.00272046, "ECCENTRICITY": 1.917e-05, "INCLINATION": 0.0468, "RA_OF_ASC_NODE": 148.1177, "ARG_OF_PERICENTER": 301.9397, "MEAN_ANOMALY": 356.989, "EPHEMERIS_TYPE": 0, "CLASSIFICATION_TYPE": "U", "NORAD_CAT_ID": 42741, "ELEMENT_SET_NO": 999, "REV_AT_EPOCH": 3190, "BSTAR": 0, "MEAN_MOTION_DOT": 1.9e-07, "MEAN_MOTION_DDOT": 0}, "tle": {"line1": "1 42741U 17029B   25351.52404347  .00000019  00000+0  00000+0 0  9990", "line2": "2 42741   0.0468 148.1177 0000191 301.9397 356.9890  1.00272046 31905"}}, "geometry": {"type": "Point", "coordinates": [-136.306917086798, -0.005949300660297065]}}, {"type": "Feature", "properties": {"norad_id": 44334, "name": "EUTELSAT 7C", "group": "eutelsat", "lat": -0.03296182550877389, "lon": 58.69291994304662, "alt_km": 35798.88626403955, "timestamp": "2025-12-17T21:39:45.379966+00:00", "meta": {"OBJECT_NAME": "EUTELSAT 7C", "OBJECT_ID": "2019-034B", "EPOCH": "2025-12-16T15:06:04.817088", "MEAN_MOTION": 1.00271584, "ECCENTRICITY": 0.00030764, "INCLINATION": 0.0725, "RA_OF_ASC_NODE": 176.9051, "ARG_OF_PERICENTER": 71.4959, "MEAN_ANOMALY": 70.6234, "EPHEMERIS_TYPE": 0, "CLASSIFICATION_TYPE": "U", "NORAD_CAT_ID": 44334, "ELEMENT_SET_NO": 999, "REV_AT_EPOCH": 500, "BSTAR": 0, "MEAN_MOTION_DOT": 7.2e-07, "MEAN_MOTION_DDOT": 0}, "tle": {"line1": "1 44334U 19034B   25350.62922242  .00000072  00000+0  00000+0 0  9996", "line2": "2 44334   0.0725 176.9051 0003076  71.4959  70.6234  1.00271584  5009"}}, "geometry": {"type": "Point", "coordinates": [58.69291994304662, -0.03296182550877389]}}, {"type": "Feature", "properties": {"norad_id": 44624, "name": "EUTELSAT 5 WEST B", "group": "eutelsat", "lat": 0.0922623426897514, "lon": 46.74115975688504, "alt_km": 35795.93758564346, "timestamp": "2025-12-17T21:39:45.379977+00:00", "meta": {"OBJECT_NAME": "EUTELSAT 5 WEST B", "OBJECT_ID": "2019-067A", "EPOCH": "2025-12-17T08:10:00.645600", "MEAN_MOTION": 1.00273495, "ECCENTRICITY": 0.00031821, "INCLINATION": 0.0707, "RA_OF_ASC_NODE": 329.3039, "ARG_OF_PERICENTER": 297.2776, "MEAN_ANOMALY": 297.1542, "EPHEMERIS_TYPE": 0, "CLASSIFICATION_TYPE": "U", "NORAD_CAT_ID": 44624, "ELEMENT_SET_NO": 999, "REV_AT_EPOCH": 2261, "BSTAR": 0, "MEAN_MOTION_DOT": -1.7e-07, "MEAN_MOTION_DDOT": 0}, "tle": {"line1": "1 44624U 19067A   25351.34028525 -.00000017  00000+0  00000+0 0  9995", "line2": "2 44624   0.0707 329.3039 0003182 297.2776 297.1542  1.00273495 22611"}}, "geometry": {"type": "Point", "coordinates": [46.74115975688504, 0.0922623426897514]}}, {"type": "Feature", "properties": {"norad_id": 45027, "name": "EUTELSAT KONNECT", "group": "eutelsat", "lat": -0.015337389179494522, "lon": 58.90319136711524, "alt_km": 35790.04133445312, "timestamp": "2025-12-17T21:39:45.379989+00:00", "meta": {"OBJECT_NAME": "EUTELSAT KONNECT", "OBJECT_ID": "2020-005B", "EPOCH": "2025-12-16T16:48:56.195424", "MEAN_MOTION": 1.00270775, "ECCENTRICITY": 0.000134, "INCLINATION": 0.0734, "RA_OF_ASC_NODE": 96, "ARG_OF_PERICENTER": 191.486, "MEAN_ANOMALY": 57.5312, "EPHEMERIS_TYPE": 0, "CLASSIFICATION_TYPE": "U", "NORAD_CAT_ID": 45027, "ELEMENT_SET_NO": 999, "REV_AT_EPOCH": 2250, "BSTAR": 0, "MEAN_MOTION_DOT": 7.3e-07, "MEAN_MOTION_DDOT": 0}, "tle": {"line1": "1 45027U 20005B   25350.70065041  .00000073  00000+0  00000+0 0  9991", "line2": "2 45027   0.0734  96.0000 0001340 191.4860  57.5312  1.00270775 22507"}}, "geometry": {"type": "Point", "coordinates": [58.90319136711524, -0.015337389179494522]}}, {"type": "Feature", "properties": {"norad_id": 49056, "name": "EUTELSAT QUANTUM", "group": "eutelsat", "lat": 0.03611794056890389, "lon": 99.40529088093604, "alt_km": 35800.43442775346, "timestamp": "2025-12-17T21:39:45.380005+00:00", "meta": {"OBJECT_NAME": "EUTELSAT QUANTUM", "OBJECT_ID": "2021-069B", "EPOCH": "2025-12-17T13:33:13.735584", "MEAN_MOTION": 1.00270893, "ECCENTRICITY": 0.00033424, "INCLINATION": 0.0134, "RA_OF_ASC_NODE": 14.3638, "ARG_OF_PERICENTER": 263.1689, "MEAN_ANOMALY": 59.922, "EPHEMERIS_TYPE": 0, "CLASSIFICATION_TYPE": "U", "NORAD_CAT_ID": 49056, "ELEMENT_SET_NO": 999, "REV_AT_EPOCH": 1610, "BSTAR": 0, "MEAN_MOTION_DOT": 1.51e-06, "MEAN_MOTION_DDOT": 0}, "tle": {"line1": "1 49056U 21069B   25351.56474231  .00000151  00000+0  00000+0 0  9995", "line2": "2 49056   0.0134  14.3638 0003342 263.1689  59.9220  1.00270893 16101"}}, "geometry": {"type": "Point", "coordinates": [99.40529088093604, 0.03611794056890389]}}, {"type": "Feature", "properties": {"norad_id": 53765, "name": "EUTELSAT KONNECT VHTS", "group": "eutelsat", "lat": -0.01708222433387055, "lon": 54.43328063769852, "alt_km": 35796.08357873642, "timestamp": "2025-12-17T21:39:45.380022+00:00", "meta": {"OBJECT_NAME": "EUTELSAT KONNECT VHTS", "OBJECT_ID": "2022-110A", "EPOCH": "2025-12-16T21:55:49.974240", "MEAN_MOTION": 1.00270385, "ECCENTRICITY": 0.00023075, "INCLINATION": 0.0652, "RA_OF_ASC_NODE": 101.283, "ARG_OF_PERICENTER": 141.3704, "MEAN_ANOMALY": 174.8367, "EPHEMERIS_TYPE": 0, "CLASSIFICATION_TYPE": "U", "NORAD_CAT_ID": 53765, "ELEMENT_SET_NO": 999, "REV_AT_EPOCH": 499, "BSTAR": 0, "MEAN_MOTION_DOT": 4.1e-07, "MEAN_MOTION_DDOT": 0}, "tle": {"line1": "1 53765U 22110A   25350.91377285  .00000041  00000+0  00000+0 0  9992", "line2": "2 53765   0.0652 101.2830 0002307 141.3704 174.8367  1.00270385  4992"}}, "geometry": {"type": "Point", "coordinates": [54.43328063769852, -0.01708222433387055]}}, {"type": "Feature", "properties": {"norad_id": 54048, "name": "EUTELSAT HOTBIRD 13F", "group": "eutelsat", "lat": 0.05330418116759591, "lon": 64.7185869845145, "alt_km": 35781.36241342037, "timestamp": "2025-12-17T21:39:45.380041+00:00", "meta": {"OBJECT_NAME": "EUTELSAT HOTBIRD 13F", "OBJECT_ID": "2022-134A", "EPOCH": "2025-12-14T22:02:26.653056", "MEAN_MOTION": 1.0027139, "ECCENTRICITY": 0.00023413, "INCLINATION": 0.0492, "RA_OF_ASC_NODE": 293.4772, "ARG_OF_PERICENTER": 68.5165, "MEAN_ANOMALY": 65.4415, "EPHEMERIS_TYPE": 0, "CLASSIFICATION_TYPE": "U", "NORAD_CAT_ID": 54048, "ELEMENT_SET_NO": 999, "REV_AT_EPOCH": 1152, "BSTAR": 0, "MEAN_MOTION_DOT": 1.07e-06, "MEAN_MOTION_DDOT": 0}, "tle": {"line1": "1 54048U 22134A   25348.91836404  .00000107  00000+0  00000+0 0  9996", "line2": "2 54048   0.0492 293.4772 0002341  68.5165  65.4415  1.00271390 11520"}}, "geometry": {"type": "Point", "coordinates": [64.7185869845145, 0.05330418116759591]}}, {"type": "Feature", "properties": {"norad_id": 54225, "name": "EUTELSAT HOTBIRD 13G", "group": "eutelsat", "lat": 0.01945220756806196, "lon": 64.67276234895915, "alt_km": 35788.54236693532, "timestamp": "2025-12-17T21:39:45.380052+00:00", "meta": {"OBJECT_NAME": "EUTELSAT HOTBIRD 13G", "OBJECT_ID": "2022-146A", "EPOCH": "2025-12-16T23:41:28.142592", "MEAN_MOTION": 1.00272, "ECCENTRICITY": 0.00018519, "INCLINATION": 0.051, "RA_OF_ASC_NODE": 235.253, "ARG_OF_PERICENTER": 299.0172, "MEAN_ANOMALY": 279.9588, "EPHEMERIS_TYPE": 0, "CLASSIFICATION_TYPE": "U", "NORAD_CAT_ID": 54225, "ELEMENT_SET_NO": 999, "REV_AT_EPOCH": 564, "BSTAR": 0, "MEAN_MOTION_DOT": 1.12e-06, "MEAN_MOTION_DDOT": 0}, "tle": {"line1": "1 54225U 22146A   25350.98713128  .00000112  00000+0  00000+0 0  9999", "line2": "2 54225   0.0510 235.2530 0001851 299.0172 279.9588  1.00272000  5646"}}, "geometry": {"type": "Point", "coordinates": [64.67276234895915, 0.01945220756806196]}}, {"type": "Feature", "properties": {"norad_id": 54259, "name": "EUTELSAT 10B", "group": "eutelsat", "lat": -0.005158767843503616, "lon": 61.66930087047549, "alt_km": 35785.59754981549, "timestamp": "2025-12-17T21:39:45.380063+00:00", "meta": {"OBJECT_NAME": "EUTELSAT 10B", "OBJECT_ID": "2022-157A", "EPOCH": "2025-12-17T08:14:15.238752", "MEAN_MOTION": 1.00271162, "ECCENTRICITY": 0.00010348, "INCLINATION": 0.0613, "RA_OF_ASC_NODE": 98.3605, "ARG_OF_PERICENTER": 45.4246, "MEAN_ANOMALY": 75.9818, "EPHEMERIS_TYPE": 0, "CLASSIFICATION_TYPE": "U", "NORAD_CAT_ID": 54259, "ELEMENT_SET_NO": 999, "REV_AT_EPOCH": 1120, "BSTAR": 0, "MEAN_MOTION_DOT": 9.3e-07, "MEAN_MOTION_DDOT": 0}, "tle": {"line1": "1 54259U 22157A   25351.34323193  .00000093  00000+0  00000+0 0  9996", "line2": "2 54259   0.0613  98.3605 0001034  45.4246  75.9818  1.00271162 11203"}}, "geometry": {"type": "Point", "coordinates": [61.66930087047549, -0.005158767843503616]}}, {"type": "Feature", "properties": {"norad_id": 59346, "name": "EUTELSAT 36D", "group": "eutelsat", "lat": 0.04980143497259079, "lon": 87.53221506275815, "alt_km": 35785.716146584426, "timestamp": "2025-12-17T21:39:45.380074+00:00", "meta": {"OBJECT_NAME": "EUTELSAT 36D", "OBJECT_ID": "2024-059A", "EPOCH": "2025-12-16T15:14:19.027680", "MEAN_MOTION": 1.00271145, "ECCENTRICITY": 3.915e-05, "INCLINATION": 0.0246, "RA_OF_ASC_NODE": 4.3594, "ARG_OF_PERICENTER": 5.8864, "MEAN_ANOMALY": 339.6859, "EPHEMERIS_TYPE": 0, "CLASSIFICATION_TYPE": "U", "NORAD_CAT_ID": 59346, "ELEMENT_SET_NO": 999, "REV_AT_EPOCH": 631, "BSTAR": 0, "MEAN_MOTION_DOT": 0, "MEAN_MOTION_DDOT": 0}, "tle": {"line1": "1 59346U 24059A   25350.63494245  .00000000  00000+0  00000+0 0  9997", "line2": "2 59346   0.0246   4.3594 0000391   5.8864 339.6859  1.00271145  6314"}}, "geometry": {"type": "Point", "coordinates": [87.53221506275815, 0.04980143497259079]}}]}